satname,norad_id,inclination_deg,eccentricity,mean_motion_rev_per_day,perigee_km,apogee_km,l1,l2
STARLINK-1263,45405,53.1596,0.0001375,15.30202811,474.26434153736864,476.14901104834826,1 45405U 20019AX  26078.28742060  .00004973  00000+0  17989-3 0  9991,2 45405  53.1596  84.6899 0001375  78.9361 281.1795 15.30202811331444
STARLINK-1265,45406,53.1606,0.0001266,15.3021489,474.3029821802338,476.03823966731943,1 45406U 20019AY  26078.30217641  .00002428  00000+0  94044-4 0  9998,2 45406  53.1606  84.6966 0001266  90.1272 269.9874 15.30214890331440
STARLINK-1278,45408,53.0443,0.0003114,15.57714451,392.16458724312724,396.38244451241553,1 45408U 20019BA  26078.28160242  .00030025  00000+0  40279-3 0  9995,2 45408  53.0443  83.8819 0003114  70.0567 290.0780 15.57714451331455
STARLINK-1296,45412,53.1578,0.0001704,15.307692,472.3485457835068,474.68358914889905,1 45412U 20019BE  26078.29469779  .00046337  00000+0  15395-2 0  9991,2 45412  53.1578  84.6203 0001704  94.6023 265.5173 15.30769200331443
STARLINK-1298,45413,53.0329,0.0001937,16.05340551,258.37055160075215,260.9420327221351,1 45413U 20019BF  26078.85025326  .00444107  10300-3  62015-3 0  9997,2 45413  53.0329   1.2743 0001937  90.5882 269.5372 16.05340551332743
STARLINK-1309,45414,53.0666,0.0006791,15.56649253,392.76144591938464,401.9639295952966,1 45414U 20019BG  26078.26393118  .00079649  00000+0  10928-2 0  9992,2 45414  53.0666  77.2847 0006791  65.0824 295.0892 15.56649253331524
STARLINK-1316,45415,53.1579,0.0001636,15.30668102,472.696777627536,474.9387372241672,1 45415U 20019BH  26078.27471426  .00009672  00000+0  33346-3 0  9992,2 45415  53.1579  84.7625 0001636 121.3079 238.8083 15.30668102331463
STARLINK-1286,45417,53.0478,0.0003678,15.51545927,409.714325425708,414.70930601455257,1 45417U 20019BK  26078.27033105  .00025540  00000+0  43034-3 0  9999,2 45417  53.0478  84.6610 0003678  79.2651 280.8772 15.51545927331712
STARLINK-1308,45419,53.0524,0.000361,15.52407804,407.247897893988,412.14871498523735,1 45419U 20019BM  26078.28033964  .00095640  00000+0  15284-2 0  9998,2 45419  53.0524 105.9855 0003610  46.2777 313.8530 15.52407804331163
STARLINK-1329,45531,53.0502,5.4e-05,15.58281436,392.26502128619904,392.9962641916154,1 45531U 20025A   26078.13984396  .00110061  00000+0  14141-2 0  9994,2 45531  53.0502  35.5057 0000540 125.9071 234.1990 15.58281436326927
STARLINK-1338,45532,53.0489,0.0004877,15.56543434,394.3652039890276,400.9743259075585,1 45532U 20025B   26078.59515135  .00039941  00000+0  55654-3 0  9998,2 45532  53.0489  36.7811 0004877  48.1140 312.0286 15.56543434326946
STARLINK-1350,45535,53.074,0.0002317,15.36373104,455.26137113432196,458.4287018100231,1 45535U 20025E   26078.02877172  .00010861  00000+0  31202-3 0  9994,2 45535  53.0740 349.2768 0002317  90.5135 269.6133 15.36373104327597
STARLINK-1362,45538,53.163,0.0001407,15.29712619,475.70621615458185,477.63515903787084,1 45538U 20025H   26078.64902019 -.00167943  00000+0 -58745-2 0  9990,2 45538  53.1630  54.7364 0001407 107.1925 252.9230 15.29712619326705
STARLINK-1368,45540,53.1584,0.0001041,15.30189339,474.53346416434033,475.9603386926183,1 45540U 20025K   26078.65867017  .00002512  00000+0  96935-4 0  9995,2 45540  53.1584  55.0192 0001041 104.5111 255.6005 15.30189339326698
STARLINK-1371,45542,53.0516,0.0002142,15.48774393,418.85406677300944,421.76652159383866,1 45542U 20025M   26078.62635964  .00058929  00000+0  10795-2 0  9999,2 45542  53.0516  41.8909 0002142  76.4384 283.6862 15.48774393326876
STARLINK-1372,45543,53.1607,0.0001527,15.30189492,474.1999329408027,476.2929562447807,1 45543U 20025N   26078.63544825 -.00000762  00000+0 -13590-4 0  9998,2 45543  53.1607  54.8257 0001527 146.0469 214.0630 15.30189492325795
STARLINK-1373,45544,53.0515,0.0005067,15.52531946,405.897247435857,412.7756730404626,1 45544U 20025P   26078.61591950  .00079346  00000+0  12660-2 0  9995,2 45544  53.0515  41.2164 0005067  53.3830 306.7644 15.52531946326889
STARLINK-1327,45555,53.048,0.0006586,15.55993731,394.8019161689117,403.7291107596466,1 45555U 20025AA  26078.10059567  .00088258  00000+0  12387-2 0  9992,2 45555  53.0480  21.1266 0006586 100.1215 260.0539 15.55993731327116
STARLINK-1356,45564,53.0523,0.0005944,15.46364414,423.3267651950391,431.4171542463555,1 45564U 20025AK  26078.17162266  .00051687  00000+0  10309-2 0  9998,2 45564  53.0523  28.6534 0005944  73.2177 286.9481 15.46364414327010
STARLINK-1357,45565,53.0519,0.0004255,15.57647541,391.58571417800886,397.3492005712342,1 45565U 20025AL  26078.02431919  .00093619  00000+0  12350-2 0  9996,2 45565  53.0519 352.7749 0004255 142.2596 217.8714 15.57647541327515
STARLINK-1361,45567,53.0502,0.0007494,15.49456189,413.222571749885,423.4090952567385,1 45567U 20025AN  26078.88634730  .00073220  00000+0  13042-2 0  9993,2 45567  53.0502  25.0817 0007494  74.1398 286.0435 15.49456189327139
STARLINK-1363,45568,53.0425,0.0007243,15.79126014,328.05488588524713,337.77651682843225,1 45568U 20025AP  26078.83335647  .00101279  00000+0  55209-3 0  9992,2 45568  53.0425 346.9608 0007243  98.7782 275.3709 15.79126014  6029
STARLINK-1366,45569,53.0434,0.0007553,15.77903233,331.31088791711954,341.4538408689714,1 45569U 20025AQ  26078.02901099  .00094804  00000+0  54657-3 0  9995,2 45569  53.0434 351.8364 0007553  93.9865 266.2018 15.77903233327513
STARLINK-1376,45570,53.1635,0.0001542,15.3077128,472.4533368705861,474.5663847624619,1 45570U 20025AR  26078.58076461  .00016179  00000+0  54747-3 0  9993,2 45570  53.1635  31.8474 0001542 115.2389 244.8772 15.30771280327015
STARLINK-1320,45572,53.048,0.0006259,15.70185748,354.1493084736321,362.58206253534627,1 45572U 20025AT  26078.86756683  .00059866  00000+0  48529-3 0  9998,2 45572  53.0480 295.4447 0006259  85.6810 274.4922 15.70185748328403
STARLINK-1321,45573,53.0492,0.0004516,15.50092215,413.38814377261406,419.5250206960891,1 45573U 20025AU  26078.11220111  .00082962  00000+0  14430-2 0  9995,2 45573  53.0492  13.3224 0004516  97.3458 262.8063 15.50092215326925
STARLINK-1331,45578,53.0536,0.0005659,15.50097473,412.59616536888734,420.28626899509345,1 45578U 20025AZ  26078.82940653  .00069804  00000+0  12170-2 0  9997,2 45578  53.0536  16.5666 0005659 119.4285 240.7288 15.50097473327259
STARLINK-1333,45580,53.1623,0.000109,15.30195649,474.48104396021245,475.9750775434559,1 45580U 20025BB  26078.88247105  .00001066  00000+0  48116-4 0  9995,2 45580  53.1623  30.4633 0001090  88.5586 271.5540 15.30195649327068
STARLINK-1335,45581,53.1566,0.0001425,15.29371057,476.71430614555993,478.6682172001365,1 45581U 20025BC  26078.57095933 -.00003430  00000+0 -10654-3 0  9996,2 45581  53.1566  29.2098 0001425  92.8909 267.2255 15.29371057327045
STARLINK-1337,45582,53.054,0.0005296,15.5973282,384.8461322075418,392.01327966246754,1 45582U 20025BD  26078.81457751  .00087231  00000+0  10647-2 0  9994,2 45582  53.0540  12.5264 0005296 119.5265 240.6275 15.59732820327295
STARLINK-1347,45586,53.0466,0.0005115,15.56163336,395.3066725614026,402.23945155488764,1 45586U 20025BH  26078.00037596  .00093754  00000+0  13067-2 0  9996,2 45586  53.0466 344.4590 0005115  99.6287 260.5302 15.56163336327612
STARLINK-1364,45589,53.0522,0.0008031,15.51366808,407.28072727675135,418.1882250417584,1 45589U 20025BL  26078.55029867  .00058271  00000+0  97326-3 0  9997,2 45589  53.0522  15.8537 0008031  99.6735 260.5181 15.51366808327222
STARLINK-1365,45590,53.0528,0.0004625,15.46927051,422.57490837779824,428.8684776688451,1 45590U 20025BM  26078.62300788  .00055637  00000+0  10874-2 0  9996,2 45590  53.0528  46.1523 0004625  80.7214 279.4316 15.46927051326821
STARLINK-1443,45660,53.1373,0.0003349,15.26017574,485.43217346990696,490.0309322266039,1 45660U 20035D   26078.54181095  .00026681  00000+0  10330-2 0  9998,2 45660  53.1373  19.4423 0003349  95.5296 264.6084 15.26017574320264
STARLINK-1446,45663,53.0245,6.96e-05,15.43295413,435.91698197588903,436.86556431150984,1 45663U 20035G   26078.84995248  .00015647  00000+0  35458-3 0  9996,2 45663  53.0245 311.0985 0000696 339.7373  20.3604 15.43295413321242
STARLINK-1448,45665,53.0506,0.0007959,15.54473486,398.28592157535604,409.0812235627709,1 45665U 20035J   26078.81592774  .00081422  00000+0  12095-2 0  9997,2 45665  53.0506   3.8911 0007959 118.9159 241.2650 15.54473486320498
STARLINK-1451,45668,53.0551,0.0001993,15.10608688,532.9648356684684,535.7201499943112,1 45668U 20035M   26078.07732373  .00029852  00000+0  17964-2 0  9998,2 45668  53.0551  23.6602 0001993  70.7456 289.3750 15.10608688320169
STARLINK-1452,45669,53.0325,0.0006651,15.46646519,422.0186008307055,431.0701880215702,1 45669U 20035N   26077.99026410  .00070220  00000+0  13804-2 0  9991,2 45669  53.0325 337.3626 0006651  93.5687 266.6080 15.46646519320804
STARLINK-1453,45670,53.0473,0.00053,15.54740478,399.3131793410221,406.501086121717,1 45670U 20035P   26078.86968368  .00083268  00000+0  12253-2 0  9990,2 45670  53.0473 324.2042 0005300  92.7535 267.4082 15.54740478320955
STARLINK-1454,45671,53.0511,0.0008243,15.53070842,402.17263756098873,413.3598776714962,1 45671U 20035Q   26078.08795911  .00092445  00000+0  14418-2 0  9999,2 45671  53.0511   7.6223 0008243  99.9395 260.2545 15.53070842320375
STARLINK-1456,45673,53.0506,0.0002544,15.51460083,410.7347632838273,414.1898202034672,1 45673U 20035S   26078.09291641  .00094719  00000+0  15664-2 0  9993,2 45673  53.0506   1.1581 0002544 145.6514 214.4659 15.51460083320484
STARLINK-1457,45674,53.0466,0.0007482,15.8134231,321.6272319192376,331.6602658318561,1 45674U 20035T   26078.85115060  .00113764  00000+0  55911-3 0  9990,2 45674  53.0466 331.4374 0007482 110.9437 249.2386 15.81342310320932
STARLINK-1458,45675,53.0535,0.0007001,15.44080048,429.3132761216684,438.851745880972,1 45675U 20035U   26078.13042551  .00033250  00000+0  72162-3 0  9994,2 45675  53.0535  10.6277 0007001 110.3416 249.8342 15.44080048320312
